IRIDIUM 159             
1 43578U 18061K   25270.24868612  .00000189  00000+0  60417-4 0  9995
2 43578  86.4034 166.6082 0001957  85.3210 274.8209 14.34217586375697
IRIDIUM 180             
1 43922U 19002A   25270.03887612  .00000011  00000+0 -30336-5 0  9995
2 43922  86.3917 103.6247 0001980  91.6744 268.4678 14.34217755351276
IRIDIUM 176             
1 43923U 19002B   25270.19193262  .00000634  00000+0  96573-4 0  9998
2 43923  86.6041 103.5425 0002984  86.4471 273.7087 14.72256852360556
IRIDIUM 168             
1 43924U 19002C   25270.03253376 -.00000002  00000+0 -78022-5 0  9996
2 43924  86.3919 103.6973 0002020  89.3867 270.7560 14.34217607351252
IRIDIUM 173             
1 43925U 19002D   25270.01984817  .00000037  00000+0  62902-5 0  9992
2 43925  86.3917 103.6022 0002230  92.2135 267.9316 14.34217881351239
IRIDIUM 169             
1 43926U 19002E   25270.12276504  .00000580  00000+0  18297-3 0  9991
2 43926  86.4237 135.1927 0003431  89.3211 270.8380 14.38608009352400
IRIDIUM 172             
1 43927U 19002F   25270.08327373 -.00000058  00000+0 -27934-4 0  9999
2 43927  86.3916 103.5826 0001863  95.4848 264.6560 14.34217054351257
IRIDIUM 175             
1 43928U 19002G   25269.91519826  .00002067  00000+0  32392-3 0  9999
2 43928  86.1498  50.3694 0002390  72.6710 287.4767 14.72246442360509
